{
  "type": "FeatureCollection",
  "features": [
    {
      "type": "Feature",
      "properties": {
        "norad_id": 66654,
        "name": "JACK E",
        "group": "last-30-days",
        "lat": 18.879916713487518,
        "lon": -76.3977563310983,
        "alt_km": 600.0091952579014,
        "timestamp": "2025-12-25T07:00:32.762606+00:00",
        "meta_object_name": "JACK E",
        "meta_object_id": "2025-274E",
        "meta_epoch": "2025-12-24T18:02:54.225600",
        "meta_mean_motion": 14.92145047,
        "meta_eccentricity": 0.00123431,
        "meta_inclination": 97.7407,
        "meta_ra_of_asc_node": 285.7379,
        "meta_arg_of_pericenter": 210.6916,
        "meta_mean_anomaly": 149.3582,
        "meta_ephemeris_type": 0,
        "meta_classification_type": "U",
        "meta_norad_cat_id": 66654,
        "meta_element_set_no": 999,
        "meta_rev_at_epoch": 419,
        "meta_bstar": 0.00032281422,
        "meta_mean_motion_dot": 3.233e-05,
        "meta_mean_motion_ddot": 0,
        "tle_line1": "1 66654U 25274E   25358.75201650  .00003233  00000+0  32281-3 0  9995",
        "tle_line2": "2 66654  97.7407 285.7379 0012343 210.6916 149.3582 14.92145047  4195"
      },
      "geometry": {
        "type": "Point",
        "coordinates": [
          -76.3977563310983,
          18.879916713487518
        ]
      }
    },
    {
      "type": "Feature",
      "properties": {
        "norad_id": 66655,
        "name": "2025-274F",
        "group": "last-30-days",
        "lat": -19.968775599727856,
        "lon": -70.92641627556046,
        "alt_km": 596.3514292194313,
        "timestamp": "2025-12-25T07:00:32.762616+00:00",
        "meta_object_name": "2025-274F",
        "meta_object_id": "2025-274F",
        "meta_epoch": "2025-12-24T06:56:33.276192",
        "meta_mean_motion": 14.911933,
        "meta_eccentricity": 0.00044335,
        "meta_inclination": 97.7344,
        "meta_ra_of_asc_node": 285.2601,
        "meta_arg_of_pericenter": 344.9357,
        "meta_mean_anomaly": 15.1729,
        "meta_ephemeris_type": 0,
        "meta_classification_type": "U",
        "meta_norad_cat_id": 66655,
        "meta_element_set_no": 999,
        "meta_rev_at_epoch": 412,
        "meta_bstar": 1.9529297e-05,
        "meta_mean_motion_dot": 1.39e-06,
        "meta_mean_motion_ddot": 0,
        "tle_line1": "1 66655U 25274F   25358.28927403  .00000139  00000+0  19529-4 0  9998",
        "tle_line2": "2 66655  97.7344 285.2601 0004433 344.9357  15.1729 14.91193300  4120"
      },
      "geometry": {
        "type": "Point",
        "coordinates": [
          -70.92641627556046,
          -19.968775599727856
        ]
      }
    },
    {
      "type": "Feature",
      "properties": {
        "norad_id": 66656,
        "name": "2025-274G",
        "group": "last-30-days",
        "lat": 38.01056144731402,
        "lon": -79.82656952550634,
        "alt_km": 596.7804056167652,
        "timestamp": "2025-12-25T07:00:32.762626+00:00",
        "meta_object_name": "2025-274G",
        "meta_object_id": "2025-274G",
        "meta_epoch": "2025-12-24T17:57:48.297888",
        "meta_mean_motion": 14.92341607,
        "meta_eccentricity": 0.00129127,
        "meta_inclination": 97.7403,
        "meta_ra_of_asc_node": 285.7417,
        "meta_arg_of_pericenter": 212.4848,
        "meta_mean_anomaly": 147.5578,
        "meta_ephemeris_type": 0,
        "meta_classification_type": "U",
        "meta_norad_cat_id": 66656,
        "meta_element_set_no": 999,
        "meta_rev_at_epoch": 419,
        "meta_bstar": 0.00034127557,
        "meta_mean_motion_dot": 3.438e-05,
        "meta_mean_motion_ddot": 0,
        "tle_line1": "1 66656U 25274G   25358.74847567  .00003438  00000+0  34128-3 0  9998",
        "tle_line2": "2 66656  97.7403 285.7417 0012912 212.4848 147.5578 14.92341607  4197"
      },
      "geometry": {
        "type": "Point",
        "coordinates": [
          -79.82656952550634,
          38.01056144731402
        ]
      }
    },
    {
      "type": "Feature",
      "properties": {
        "norad_id": 66657,
        "name": "SPIRONE",
        "group": "last-30-days",
        "lat": 56.068359986468096,
        "lon": -85.38047160645179,
        "alt_km": 592.2642249135288,
        "timestamp": "2025-12-25T07:00:32.762636+00:00",
        "meta_object_name": "SPIRONE",
        "meta_object_id": "2025-274H",
        "meta_epoch": "2025-12-24T17:52:57.460800",
        "meta_mean_motion": 14.92519691,
        "meta_eccentricity": 0.00109277,
        "meta_inclination": 97.74,
        "meta_ra_of_asc_node": 285.7453,
        "meta_arg_of_pericenter": 230.1139,
        "meta_mean_anomaly": 129.912,
        "meta_ephemeris_type": 0,
        "meta_classification_type": "U",
        "meta_norad_cat_id": 66657,
        "meta_element_set_no": 999,
        "meta_rev_at_epoch": 419,
        "meta_bstar": 0.00033156122,
        "meta_mean_motion_dot": 3.352e-05,
        "meta_mean_motion_ddot": 0,
        "tle_line1": "1 66657U 25274H   25358.74510950  .00003352  00000+0  33156-3 0  9997",
        "tle_line2": "2 66657  97.7400 285.7453 0010927 230.1139 129.9120 14.92519691  4196"
      },
      "geometry": {
        "type": "Point",
        "coordinates": [
          -85.38047160645179,
          56.068359986468096
        ]
      }
    },
    {
      "type": "Feature",
      "properties": {
        "norad_id": 66658,
        "name": "2025-274J",
        "group": "last-30-days",
        "lat": 72.83852196669764,
        "lon": -99.83983242722383,
        "alt_km": 589.8788855948378,
        "timestamp": "2025-12-25T07:00:32.762650+00:00",
        "meta_object_name": "2025-274J",
        "meta_object_id": "2025-274J",
        "meta_epoch": "2025-12-24T16:11:45.140064",
        "meta_mean_motion": 14.92696275,
        "meta_eccentricity": 0.00114548,
        "meta_inclination": 97.74,
        "meta_ra_of_asc_node": 285.6841,
        "meta_arg_of_pericenter": 233.7745,
        "meta_mean_anomaly": 126.2416,
        "meta_ephemeris_type": 0,
        "meta_classification_type": "U",
        "meta_norad_cat_id": 66658,
        "meta_element_set_no": 999,
        "meta_rev_at_epoch": 418,
        "meta_bstar": 0.00045121602,
        "meta_mean_motion_dot": 4.604e-05,
        "meta_mean_motion_ddot": 0,
        "tle_line1": "1 66658U 25274J   25358.67482801  .00004604  00000+0  45122-3 0  9990",
        "tle_line2": "2 66658  97.7400 285.6841 0011454 233.7745 126.2416 14.92696275  4186"
      },
      "geometry": {
        "type": "Point",
        "coordinates": [
          -99.83983242722383,
          72.83852196669764
        ]
      }
    },
    {
      "type": "Feature",
      "properties": {
        "norad_id": 66659,
        "name": "JACK K",
        "group": "last-30-days",
        "lat": 81.45621785772546,
        "lon": 171.16941766649813,
        "alt_km": 588.0551395061902,
        "timestamp": "2025-12-25T07:00:32.762661+00:00",
        "meta_object_name": "JACK K",
        "meta_object_id": "2025-274K",
        "meta_epoch": "2025-12-24T08:04:10.385184",
        "meta_mean_motion": 14.92869398,
        "meta_eccentricity": 0.00121883,
        "meta_inclination": 97.7402,
        "meta_ra_of_asc_node": 285.3593,
        "meta_arg_of_pericenter": 236.9744,
        "meta_mean_anomaly": 123.0305,
        "meta_ephemeris_type": 0,
        "meta_classification_type": "U",
        "meta_norad_cat_id": 66659,
        "meta_element_set_no": 999,
        "meta_rev_at_epoch": 413,
        "meta_bstar": 0.0002901391,
        "meta_mean_motion_dot": 2.953e-05,
        "meta_mean_motion_ddot": 0,
        "tle_line1": "1 66659U 25274K   25358.33623131  .00002953  00000+0  29014-3 0  9994",
        "tle_line2": "2 66659  97.7402 285.3593 0012188 236.9744 123.0305 14.92869398  4134"
      },
      "geometry": {
        "type": "Point",
        "coordinates": [
          171.16941766649813,
          81.45621785772546
        ]
      }
    },
    {
      "type": "Feature",
      "properties": {
        "norad_id": 66660,
        "name": "K-HERO",
        "group": "last-30-days",
        "lat": 69.47001749540641,
        "lon": 127.60467268532045,
        "alt_km": 586.9283905809534,
        "timestamp": "2025-12-25T07:00:32.762673+00:00",
        "meta_object_name": "K-HERO",
        "meta_object_id": "2025-274L",
        "meta_epoch": "2025-12-24T19:15:43.592832",
        "meta_mean_motion": 14.93023583,
        "meta_eccentricity": 0.00128231,
        "meta_inclination": 97.7403,
        "meta_ra_of_asc_node": 285.8259,
        "meta_arg_of_pericenter": 235.9448,
        "meta_mean_anomaly": 124.0555,
        "meta_ephemeris_type": 0,
        "meta_classification_type": "U",
        "meta_norad_cat_id": 66660,
        "meta_element_set_no": 999,
        "meta_rev_at_epoch": 420,
        "meta_bstar": 0.00029020754,
        "meta_mean_motion_dot": 2.966e-05,
        "meta_mean_motion_ddot": 0,
        "tle_line1": "1 66660U 25274L   25358.80258788  .00002966  00000+0  29021-3 0  9992",
        "tle_line2": "2 66660  97.7403 285.8259 0012823 235.9448 124.0555 14.93023583  4202"
      },
      "geometry": {
        "type": "Point",
        "coordinates": [
          127.60467268532045,
          69.47001749540641
        ]
      }
    }
  ]
}